BANDWAGON-2 OBJECT W    
1 62397U 24247W   26067.98952992  .00452763  00000+0  23186-2 0  9998
2 62397  44.9860  64.7425 0012437  91.2758 268.9569 15.79222304 68292
STARLINK-36715          
1 67716U 26025Z   26068.82811844  .00418275  00000+0  20804-2 0  9992
2 67716  97.2847 180.5930 0001273 116.8063 243.3336 15.80826355  5978
