[{"OBJECT_NAME":"BANDWAGON-2 OBJECT W","OBJECT_ID":"2024-247W","EPOCH":"2026-03-08T23:44:55.385088","MEAN_MOTION":15.79222304,"ECCENTRICITY":0.00124372,"INCLINATION":44.986,"RA_OF_ASC_NODE":64.7425,"ARG_OF_PERICENTER":91.2758,"MEAN_ANOMALY":268.9569,"EPHEMERIS_TYPE":0,"CLASSIFICATION_TYPE":"U","NORAD_CAT_ID":62397,"ELEMENT_SET_NO":999,"REV_AT_EPOCH":6829,"BSTAR":0.0023186162,"MEAN_MOTION_DOT":0.00452763,"MEAN_MOTION_DDOT":0},{"OBJECT_NAME":"STARLINK-36715","OBJECT_ID":"2026-025Z","EPOCH":"2026-03-09T19:52:29.433216","MEAN_MOTION":15.80826355,"ECCENTRICITY":0.00012727,"INCLINATION":97.2847,"RA_OF_ASC_NODE":180.593,"ARG_OF_PERICENTER":116.8063,"MEAN_ANOMALY":243.3336,"EPHEMERIS_TYPE":0,"CLASSIFICATION_TYPE":"U","NORAD_CAT_ID":67716,"ELEMENT_SET_NO":999,"REV_AT_EPOCH":597,"BSTAR":0.0020803823,"MEAN_MOTION_DOT":0.00418275,"MEAN_MOTION_DDOT":0}]
